{"type":"Feature","properties":{"nombre":"Zona de despacho: zona urbana de La Florida","fuente":"OpenStreetMap contributors (ODbL): usos de suelo residencial, comercial, retail e industrial, unidos y recortados a la comuna","nota":"Aproximacion de la mancha urbana, no el limite urbano oficial. Confirmar con el cliente."},"geometry":{"type":"Polygon","coordinates":[[[-70.61301,-33.50904],[-70.61149,-33.50906],[-70.60718,-33.51261],[-70.60645,-33.51291],[-70.60387,-33.51254],[-70.60309,-33.51194],[-70.603,-33.51084],[-70.60407,-33.50976],[-70.60419,-33.50897],[-70.59179,-33.50992],[-70.58961,-33.51127],[-70.58844,-33.51106],[-70.58761,-33.5102],[-70.56865,-33.51173],[-70.56088,-33.51154],[-70.54482,-33.51236],[-70.54411,-33.51283],[-70.54196,-33.51302],[-70.5412,-33.51428],[-70.54031,-33.51469],[-70.53747,-33.51379],[-70.5368,-33.5127],[-70.5355,-33.51209],[-70.52899,-33.51042],[-70.52705,-33.50938],[-70.52362,-33.50934],[-70.52013,-33.50795],[-70.52019,-33.51106],[-70.52097,-33.5123],[-70.52102,-33.51414],[-70.52437,-33.51408],[-70.52568,-33.51457],[-70.52626,-33.51536],[-70.52596,-33.51654],[-70.52471,-33.51715],[-70.52289,-33.51901],[-70.52425,-33.52079],[-70.5241,-33.522],[-70.52315,-33.52255],[-70.51134,-33.52343],[-70.50987,-33.52544],[-70.50825,-33.52605],[-70.50876,-33.52714],[-70.51088,-33.52702],[-70.51451,-33.52788],[-70.51561,-33.52902],[-70.51582,-33.52974],[-70.54134,-33.52677],[-70.54216,-33.52785],[-70.54206,-33.53276],[-70.54113,-33.53341],[-70.53733,-33.53363],[-70.53585,-33.53587],[-70.53746,-33.53666],[-70.53927,-33.53688],[-70.54036,-33.53812],[-70.54196,-33.53917],[-70.54235,-33.53994],[-70.54369,-33.54044],[-70.54456,-33.54038],[-70.54519,-33.54079],[-70.5455,-33.54161],[-70.54511,-33.5464],[-70.54532,-33.54784],[-70.54726,-33.54619],[-70.55022,-33.54576],[-70.55324,-33.54695],[-70.55313,-33.54589],[-70.55358,-33.54513],[-70.55716,-33.54401],[-70.56836,-33.5437],[-70.5694,-33.54438],[-70.56952,-33.54526],[-70.56865,-33.54737],[-70.56963,-33.54821],[-70.56944,-33.54944],[-70.56843,-33.55038],[-70.56624,-33.55049],[-70.55898,-33.55911],[-70.56577,-33.56034],[-70.56653,-33.56113],[-70.56645,-33.56229],[-70.58452,-33.56548],[-70.5839,-33.56886],[-70.59213,-33.56991],[-70.59288,-33.56907],[-70.59435,-33.56904],[-70.59782,-33.56776],[-70.5989,-33.56699],[-70.60415,-33.56827],[-70.60479,-33.56379],[-70.60568,-33.56314],[-70.60723,-33.56325],[-70.6079,-33.56361],[-70.60825,-33.56428],[-70.60859,-33.56894],[-70.61147,-33.56939],[-70.61255,-33.56219],[-70.61044,-33.56197],[-70.61481,-33.54654],[-70.61059,-33.54665],[-70.61032,-33.53936],[-70.60941,-33.53749],[-70.60992,-33.53637],[-70.60956,-33.52612],[-70.61157,-33.51045],[-70.61301,-33.50904]]]}}