{"type":"Feature","properties":{"nombre":"Comuna de La Florida (limite oficial completo)","fuente":"OpenStreetMap contributors (ODbL), via Nominatim","nota":"Incluye la precordillera. Respaldo del contorno sin recortar."},"geometry":{"type":"Polygon","coordinates":[[[-70.61481,-33.54654],[-70.61044,-33.56197],[-70.61255,-33.56219],[-70.61132,-33.57033],[-70.59944,-33.56731],[-70.5922,-33.56992],[-70.5839,-33.56886],[-70.58452,-33.56548],[-70.5574,-33.56065],[-70.56827,-33.54754],[-70.55091,-33.54799],[-70.54903,-33.54888],[-70.54807,-33.55041],[-70.54752,-33.55082],[-70.54718,-33.55177],[-70.54675,-33.55227],[-70.53846,-33.54848],[-70.53622,-33.54793],[-70.53459,-33.54674],[-70.53304,-33.54603],[-70.53214,-33.54484],[-70.53141,-33.54429],[-70.53049,-33.54401],[-70.52718,-33.54377],[-70.52515,-33.54313],[-70.52165,-33.54276],[-70.51462,-33.54338],[-70.50957,-33.54509],[-70.50413,-33.54634],[-70.50242,-33.54614],[-70.502,-33.54563],[-70.49816,-33.54341],[-70.49458,-33.54356],[-70.49154,-33.54411],[-70.48812,-33.54354],[-70.48683,-33.54289],[-70.48608,-33.54197],[-70.48522,-33.53996],[-70.48437,-33.53875],[-70.48325,-33.5381],[-70.48145,-33.53768],[-70.47982,-33.5366],[-70.47956,-33.5361],[-70.47939,-33.53245],[-70.47896,-33.53131],[-70.47561,-33.52895],[-70.47364,-33.52809],[-70.47132,-33.52759],[-70.46892,-33.52666],[-70.46806,-33.52558],[-70.4672,-33.52358],[-70.46548,-33.51821],[-70.4642,-33.51657],[-70.46047,-33.51588],[-70.4593,-33.51399],[-70.44995,-33.5059],[-70.44857,-33.50512],[-70.4436,-33.50483],[-70.43716,-33.49824],[-70.43691,-33.4965],[-70.43697,-33.49582],[-70.43737,-33.4953],[-70.43751,-33.49392],[-70.43711,-33.49288],[-70.43731,-33.49156],[-70.43893,-33.49202],[-70.44279,-33.49217],[-70.44734,-33.49395],[-70.44815,-33.49462],[-70.44958,-33.49509],[-70.4504,-33.49575],[-70.45103,-33.49585],[-70.45182,-33.4956],[-70.45407,-33.4957],[-70.45516,-33.4955],[-70.45576,-33.49507],[-70.45646,-33.49522],[-70.45883,-33.49417],[-70.46018,-33.49412],[-70.46038,-33.49379],[-70.46284,-33.49232],[-70.46422,-33.49257],[-70.46584,-33.49217],[-70.46677,-33.49221],[-70.4672,-33.49245],[-70.46824,-33.49394],[-70.4696,-33.49517],[-70.47013,-33.49523],[-70.47117,-33.49447],[-70.47179,-33.49469],[-70.47232,-33.49534],[-70.47312,-33.49491],[-70.47652,-33.49514],[-70.47706,-33.49546],[-70.47671,-33.49573],[-70.47691,-33.49629],[-70.47789,-33.49677],[-70.48,-33.49698],[-70.48179,-33.49864],[-70.48281,-33.49915],[-70.48305,-33.4996],[-70.48434,-33.50036],[-70.48443,-33.50095],[-70.48549,-33.50153],[-70.48709,-33.50127],[-70.48846,-33.50147],[-70.48895,-33.50054],[-70.48968,-33.50082],[-70.49028,-33.50057],[-70.49127,-33.50081],[-70.49164,-33.5006],[-70.49207,-33.49957],[-70.49254,-33.49927],[-70.49414,-33.49949],[-70.49637,-33.49871],[-70.49687,-33.49823],[-70.4985,-33.49758],[-70.50007,-33.49817],[-70.49989,-33.49867],[-70.50013,-33.49905],[-70.50102,-33.49947],[-70.50213,-33.49926],[-70.5031,-33.49964],[-70.50378,-33.49944],[-70.50555,-33.4998],[-70.50589,-33.50014],[-70.50687,-33.50044],[-70.51201,-33.50111],[-70.51548,-33.50188],[-70.51672,-33.50244],[-70.51871,-33.50442],[-70.52282,-33.50703],[-70.52427,-33.50768],[-70.52736,-33.50806],[-70.5388,-33.51193],[-70.54188,-33.51252],[-70.54201,-33.51225],[-70.54729,-33.51231],[-70.56409,-33.51135],[-70.56613,-33.51163],[-70.56881,-33.51154],[-70.57555,-33.51079],[-70.5875,-33.51002],[-70.58965,-33.5106],[-70.59215,-33.50969],[-70.60912,-33.50846],[-70.61368,-33.50836],[-70.61157,-33.51045],[-70.61017,-33.52195],[-70.60976,-33.52765],[-70.61059,-33.54665],[-70.61481,-33.54654]]]}}